{
  "norad_id": 66304,
  "name": "BANDWAGON-4 OBJECT M",
  "history": [
    {
      "epoch": "2026-03-28T07:09:27.759744",
      "apogee_km": 500.5635665694881,
      "perigee_km": 480.8184336004433,
      "latitude_deg": 45.30114510500319,
      "longitude_deg": 119.03084415988997,
      "semi_major_axis_km": 6868.828000084965,
      "eccentricity": 0.0014373,
      "inclination_deg": 45.4113,
      "raan_deg": 191.0588,
      "arg_perigee_deg": 310.4053,
      "mean_anomaly_deg": 49.5581,
      "mean_motion_rev_day": 15.25031449
    }
  ]
}